{
  "type": "FeatureCollection",
  "features": [
    {
      "type": "Feature",
      "properties": {
        "norad_id": 66618,
        "name": "STARLINK-35970",
        "group": "last-30-days",
        "lat": -52.97386703770031,
        "lon": 55.86457813872423,
        "alt_km": 435.291506248378,
        "timestamp": "2025-12-22T16:55:16.165502+00:00",
        "meta_object_name": "STARLINK-35970",
        "meta_object_id": "2025-271B",
        "meta_epoch": "2025-12-22T06:00:02.000160",
        "meta_mean_motion": 15.45484246,
        "meta_eccentricity": 0.00012262,
        "meta_inclination": 53.1607,
        "meta_ra_of_asc_node": 141.7185,
        "meta_arg_of_pericenter": 69.1493,
        "meta_mean_anomaly": 191.5111,
        "meta_ephemeris_type": 0,
        "meta_classification_type": "U",
        "meta_norad_cat_id": 66618,
        "meta_element_set_no": 999,
        "meta_rev_at_epoch": 577,
        "meta_bstar": 0.0019080456,
        "meta_mean_motion_dot": 0.00093624,
        "meta_mean_motion_ddot": 0,
        "tle_line1": "1 66618U 25271B   25356.25002315  .00093624  00000+0  19080-2 0  9996",
        "tle_line2": "2 66618  53.1607 141.7185 0001226  69.1493 191.5111 15.45484246  5772"
      },
      "geometry": {
        "type": "Point",
        "coordinates": [
          55.86457813872423,
          -52.97386703770031
        ]
      }
    },
    {
      "type": "Feature",
      "properties": {
        "norad_id": 66619,
        "name": "STARLINK-35951",
        "group": "last-30-days",
        "lat": -31.29209231260085,
        "lon": -13.22544830678908,
        "alt_km": 447.21424091592235,
        "timestamp": "2025-12-22T16:55:16.165515+00:00",
        "meta_object_name": "STARLINK-35951",
        "meta_object_id": "2025-271C",
        "meta_epoch": "2025-12-22T06:00:02.000160",
        "meta_mean_motion": 15.43171169,
        "meta_eccentricity": 0.00014488,
        "meta_inclination": 53.1607,
        "meta_ra_of_asc_node": 141.8186,
        "meta_arg_of_pericenter": 84.3287,
        "meta_mean_anomaly": 128.4106,
        "meta_ephemeris_type": 0,
        "meta_classification_type": "U",
        "meta_norad_cat_id": 66619,
        "meta_element_set_no": 999,
        "meta_rev_at_epoch": 577,
        "meta_bstar": -0.049839114,
        "meta_mean_motion_dot": -0.02000452,
        "meta_mean_motion_ddot": 0,
        "tle_line1": "1 66619U 25271C   25356.25002315 -.02000452  00000+0 -49839-1 0  9992",
        "tle_line2": "2 66619  53.1607 141.8186 0001448  84.3287 128.4106 15.43171169  5779"
      },
      "geometry": {
        "type": "Point",
        "coordinates": [
          -13.22544830678908,
          -31.29209231260085
        ]
      }
    },
    {
      "type": "Feature",
      "properties": {
        "norad_id": 66620,
        "name": "STARLINK-35936",
        "group": "last-30-days",
        "lat": 7.8296507889749885,
        "lon": -46.15654544758791,
        "alt_km": 445.3299279938319,
        "timestamp": "2025-12-22T16:55:16.165525+00:00",
        "meta_object_name": "STARLINK-35936",
        "meta_object_id": "2025-271D",
        "meta_epoch": "2025-12-21T23:02:57.405696",
        "meta_mean_motion": 15.39672113,
        "meta_eccentricity": 0.00018507,
        "meta_inclination": 53.1599,
        "meta_ra_of_asc_node": 143.2712,
        "meta_arg_of_pericenter": 170.8964,
        "meta_mean_anomaly": 189.2075,
        "meta_ephemeris_type": 0,
        "meta_classification_type": "U",
        "meta_norad_cat_id": 66620,
        "meta_element_set_no": 999,
        "meta_rev_at_epoch": 563,
        "meta_bstar": 0.0017924362,
        "meta_mean_motion_dot": 0.00072102,
        "meta_mean_motion_ddot": 0,
        "tle_line1": "1 66620U 25271D   25355.96038664  .00072102  00000+0  17924-2 0  9995",
        "tle_line2": "2 66620  53.1599 143.2712 0001850 170.8964 189.2075 15.39672113  5637"
      },
      "geometry": {
        "type": "Point",
        "coordinates": [
          -46.15654544758791,
          7.8296507889749885
        ]
      }
    },
    {
      "type": "Feature",
      "properties": {
        "norad_id": 66621,
        "name": "STARLINK-35847",
        "group": "last-30-days",
        "lat": -52.288256058809424,
        "lon": 63.7029880534728,
        "alt_km": 435.50595195132155,
        "timestamp": "2025-12-22T16:55:16.165536+00:00",
        "meta_object_name": "STARLINK-35847",
        "meta_object_id": "2025-271E",
        "meta_epoch": "2025-12-21T07:08:05.401536",
        "meta_mean_motion": 15.45669226,
        "meta_eccentricity": 0.00038432,
        "meta_inclination": 53.1599,
        "meta_ra_of_asc_node": 146.2404,
        "meta_arg_of_pericenter": 131.8749,
        "meta_mean_anomaly": 228.2587,
        "meta_ephemeris_type": 0,
        "meta_classification_type": "U",
        "meta_norad_cat_id": 66621,
        "meta_element_set_no": 999,
        "meta_rev_at_epoch": 553,
        "meta_bstar": 0.0018441864,
        "meta_mean_motion_dot": 0.00091038,
        "meta_mean_motion_ddot": 0,
        "tle_line1": "1 66621U 25271E   25355.29728474  .00091038  00000+0  18442-2 0  9992",
        "tle_line2": "2 66621  53.1599 146.2404 0003843 131.8749 228.2587 15.45669226  5530"
      },
      "geometry": {
        "type": "Point",
        "coordinates": [
          63.7029880534728,
          -52.288256058809424
        ]
      }
    },
    {
      "type": "Feature",
      "properties": {
        "norad_id": 66622,
        "name": "STARLINK-35950",
        "group": "last-30-days",
        "lat": 53.06728845902849,
        "lon": -125.91680560352614,
        "alt_km": 439.77571854174494,
        "timestamp": "2025-12-22T16:55:16.165549+00:00",
        "meta_object_name": "STARLINK-35950",
        "meta_object_id": "2025-271F",
        "meta_epoch": "2025-12-22T00:00:00.998784",
        "meta_mean_motion": 15.39697473,
        "meta_eccentricity": 0.0001039,
        "meta_inclination": 53.1594,
        "meta_ra_of_asc_node": 143.2448,
        "meta_arg_of_pericenter": 74.0942,
        "meta_mean_anomaly": 68.4893,
        "meta_ephemeris_type": 0,
        "meta_classification_type": "U",
        "meta_norad_cat_id": 66622,
        "meta_element_set_no": 999,
        "meta_rev_at_epoch": 573,
        "meta_bstar": -0.0035089,
        "meta_mean_motion_dot": -0.00138582,
        "meta_mean_motion_ddot": 0,
        "tle_line1": "1 66622U 25271F   25356.00001156 -.00138582  00000+0 -35089-2 0  9998",
        "tle_line2": "2 66622  53.1594 143.2448 0001039  74.0942  68.4893 15.39697473  5733"
      },
      "geometry": {
        "type": "Point",
        "coordinates": [
          -125.91680560352614,
          53.06728845902849
        ]
      }
    },
    {
      "type": "Feature",
      "properties": {
        "norad_id": 66623,
        "name": "STARLINK-35920",
        "group": "last-30-days",
        "lat": 31.71478014346968,
        "lon": 167.61973835152642,
        "alt_km": 442.81088599138,
        "timestamp": "2025-12-22T16:55:16.165559+00:00",
        "meta_object_name": "STARLINK-35920",
        "meta_object_id": "2025-271G",
        "meta_epoch": "2025-12-22T02:43:21.133056",
        "meta_mean_motion": 15.39651421,
        "meta_eccentricity": 6.899e-05,
        "meta_inclination": 53.1619,
        "meta_ra_of_asc_node": 142.81,
        "meta_arg_of_pericenter": 95.3081,
        "meta_mean_anomaly": 264.8003,
        "meta_ephemeris_type": 0,
        "meta_classification_type": "U",
        "meta_norad_cat_id": 66623,
        "meta_element_set_no": 999,
        "meta_rev_at_epoch": 565,
        "meta_bstar": 0.0010571474,
        "meta_mean_motion_dot": 0.00042163,
        "meta_mean_motion_ddot": 0,
        "tle_line1": "1 66623U 25271G   25356.11343904  .00042163  00000+0  10571-2 0  9997",
        "tle_line2": "2 66623  53.1619 142.8100 0000689  95.3081 264.8003 15.39651421  5651"
      },
      "geometry": {
        "type": "Point",
        "coordinates": [
          167.61973835152642,
          31.71478014346968
        ]
      }
    },
    {
      "type": "Feature",
      "properties": {
        "norad_id": 66624,
        "name": "STARLINK-35927",
        "group": "last-30-days",
        "lat": -39.34179528088986,
        "lon": -2.439162368429786,
        "alt_km": 434.37297817294893,
        "timestamp": "2025-12-22T16:55:16.165570+00:00",
        "meta_object_name": "STARLINK-35927",
        "meta_object_id": "2025-271H",
        "meta_epoch": "2025-12-21T19:44:45.799584",
        "meta_mean_motion": 15.45590603,
        "meta_eccentricity": 0.0001212,
        "meta_inclination": 53.1602,
        "meta_ra_of_asc_node": 143.8385,
        "meta_arg_of_pericenter": 54.0655,
        "meta_mean_anomaly": 306.0465,
        "meta_ephemeris_type": 0,
        "meta_classification_type": "U",
        "meta_norad_cat_id": 66624,
        "meta_element_set_no": 999,
        "meta_rev_at_epoch": 561,
        "meta_bstar": 0.0017129448,
        "meta_mean_motion_dot": 0.00084211,
        "meta_mean_motion_ddot": 0,
        "tle_line1": "1 66624U 25271H   25355.82275231  .00084211  00000+0  17129-2 0  9998",
        "tle_line2": "2 66624  53.1602 143.8385 0001212  54.0655 306.0465 15.45590603  5610"
      },
      "geometry": {
        "type": "Point",
        "coordinates": [
          -2.439162368429786,
          -39.34179528088986
        ]
      }
    }
  ]
}